OBJECT B                
1 51825U 22019B   24195.90228974  .00014525  00000+0  62426-3 0  9996
2 51825  97.4273 266.9302 0015561 142.1561 218.0773 15.22659103131299
